OBJECT_NAME,OBJECT_ID,EPOCH,MEAN_MOTION,ECCENTRICITY,INCLINATION,RA_OF_ASC_NODE,ARG_OF_PERICENTER,MEAN_ANOMALY,EPHEMERIS_TYPE,CLASSIFICATION_TYPE,NORAD_CAT_ID,ELEMENT_SET_NO,REV_AT_EPOCH,BSTAR,MEAN_MOTION_DOT,MEAN_MOTION_DDOT
SWARM B,2013-067A,2026-07-04T03:42:47.517696,15.28660388,.0002749,87.7455,337.1611,79.7945,280.3615,0,U,39451,999,68583,.16174079E-3,.4539E-4,0
SWARM A,2013-067B,2026-07-04T01:23:55.022208,15.51278248,.00032093,87.3304,49.9703,96.5565,263.6061,0,U,39452,999,70886,.20456432E-3,.1203E-3,0
SWARM C,2013-067C,2026-07-04T01:23:46.480704,15.51277392,.00031871,87.3303,48.5512,96.6231,263.5393,0,U,39453,999,70882,.20545306E-3,.12082E-3,0
BRITE-CA1 (TORONTO),2014-033L,2026-07-04T02:12:10.357056,14.72706062,.00776807,97.9761,313.7101,222.0405,137.4826,0,U,40020,999,64470,.18343689E-3,.1173E-4,0
OCO 2,2014-035A,2026-07-04T06:05:56.628096,14.57125666,.00014805,98.2019,126.2875,81.5490,278.5876,0,U,40059,999,63853,.11876935E-3,.49E-5,0
BRITE-PL2 (HEWELIUSZ),2014-049B,2026-07-04T01:02:11.887296,14.94655576,.00150118,97.9112,297.1746,57.2784,302.9880,0,U,40119,999,64396,.20566641E-3,.2174E-4,0
MMS 1,2015-011A,2026-07-04T08:00:03.000384,0.28338221,.83234523,72.5431,348.5320,167.7589,247.6098,0,U,40482,999,138,0,-.826E-5,0
MMS 2,2015-011B,2026-07-04T08:00:03.000384,0.28338164,.83262609,72.5472,348.5310,167.7620,247.5992,0,U,40483,999,138,0,-.827E-5,0
MMS 3,2015-011C,2026-07-04T08:00:03.000384,0.28337566,.83247105,72.5484,348.5432,167.7694,247.5768,0,U,40484,999,138,0,-.826E-5,0
MMS 4,2015-011D,2026-07-04T08:00:03.000384,0.28337579,.83246331,72.5445,348.5265,167.7792,247.5703,0,U,40485,999,138,0,-.826E-5,0
ASTROSAT,2015-052A,2026-07-04T01:03:40.576896,14.82537819,.00085759,5.9980,34.0032,275.4229,84.4920,0,U,40930,999,58233,.14146054E-3,.1836E-4,0
DAMPE,2015-078A,2026-07-04T07:04:11.828640,15.30830499,.00127791,97.4555,190.8462,23.2892,336.8925,0,U,41173,999,58716,.49982863E-4,.1414E-4,0
PISAT,2016-059B,2026-07-04T05:46:52.536576,14.69015024,.002977,97.8183,184.9611,148.4688,211.8310,0,U,41784,999,52224,.21075266E-3,.1197E-4,0
HXMT (HUIYAN),2017-034A,2026-07-04T04:05:18.786912,15.18609494,.00328041,43.0142,88.4662,253.6747,106.0493,0,U,42758,999,50024,.28908436E-3,.5936E-4,0
FLYING LAPTOP,2017-042G,2026-07-04T07:34:56.543808,15.01255339,.00199663,97.4771,340.1975,67.1205,293.2125,0,U,42831,999,48902,.25096855E-3,.318E-4,0
ZHANGHENG 1-01 (CSES-1),2018-015C,2026-07-04T07:27:17.582688,15.21042970,.00178549,97.6888,351.3114,203.4033,156.6391,0,U,43194,999,46724,.42424472E-3,.939E-4,0
SALSAT,2020-068K,2026-07-03T22:54:35.117568,15.30040776,.00081593,97.8853,189.0427,236.6445,123.4014,0,U,46495,999,31792,.32069255E-3,.9251E-4,0
IXPE,2021-121A,2026-07-04T08:00:03.000384,15.10409998,.00067185,0.2282,187.5935,339.5101,221.0063,0,U,49954,999,589,.78231349E-3,.14196E-3,0
SMILE,2026-109A,2026-06-07T09:11:54.544416,7.54049028,.3310191,69.9787,209.3069,288.5544,45.7342,0,U,69123,999,248,-.36778157E-3,-.41E-6,0
