SWARM B                 
1 39451U 13067A   26185.15471664  .00004539  00000+0  16174-3 0  9997
2 39451  87.7455 337.1611 0002749  79.7945 280.3615 15.28660388685837
SWARM A                 
1 39452U 13067B   26185.05827572  .00012030  00000+0  20456-3 0  9993
2 39452  87.3304  49.9703 0003209  96.5565 263.6061 15.51278248708868
SWARM C                 
1 39453U 13067C   26185.05817686  .00012082  00000+0  20545-3 0  9995
2 39453  87.3303  48.5512 0003187  96.6231 263.5393 15.51277392708829
BRITE-CA1 (TORONTO)     
1 40020U 14033L   26185.09178654  .00001173  00000+0  18344-3 0  9993
2 40020  97.9761 313.7101 0077680 222.0405 137.4826 14.72706062644703
OCO 2                   
1 40059U 14035A   26185.25412764  .00000490  00000+0  11877-3 0  9993
2 40059  98.2019 126.2875 0001480  81.5490 278.5876 14.57125666638531
BRITE-PL2 (HEWELIUSZ)   
1 40119U 14049B   26185.04319314  .00002174  00000+0  20567-3 0  9996
2 40119  97.9112 297.1746 0015011  57.2784 302.9880 14.94655576643963
MMS 1                   
1 40482U 15011A   26185.33336806 -.00000826  00000+0  00000+0 0  9995
2 40482  72.5431 348.5320 8323452 167.7589 247.6098  0.28338221  1384
MMS 2                   
1 40483U 15011B   26185.33336806 -.00000827  00000+0  00000+0 0  9997
2 40483  72.5472 348.5310 8326260 167.7620 247.5992  0.28338164  1383
MMS 3                   
1 40484U 15011C   26185.33336806 -.00000826  00000+0  00000+0 0  9997
2 40484  72.5484 348.5432 8324710 167.7694 247.5768  0.28337566  1387
MMS 4                   
1 40485U 15011D   26185.33336806 -.00000826  00000+0  00000+0 0  9998
2 40485  72.5445 348.5265 8324633 167.7792 247.5703  0.28337579  1385
ASTROSAT                
1 40930U 15052A   26185.04421964  .00001836  00000+0  14146-3 0  9997
2 40930   5.9980  34.0032 0008575 275.4229  84.4920 14.82537819582333
DAMPE                   
1 41173U 15078A   26185.29458135  .00001414  00000+0  49983-4 0  9992
2 41173  97.4555 190.8462 0012779  23.2892 336.8925 15.30830499587160
PISAT                   
1 41784U 16059B   26185.24088584  .00001197  00000+0  21075-3 0  9991
2 41784  97.8183 184.9611 0029770 148.4688 211.8310 14.69015024522249
HXMT (HUIYAN)           
1 42758U 17034A   26185.17035633  .00005936  00000+0  28908-3 0  9993
2 42758  43.0142  88.4662 0032804 253.6747 106.0493 15.18609494500248
FLYING LAPTOP           
1 42831U 17042G   26185.31593222  .00003180  00000+0  25097-3 0  9998
2 42831  97.4771 340.1975 0019966  67.1205 293.2125 15.01255339489027
ZHANGHENG 1-01 (CSES-1) 
1 43194U 18015C   26185.31062017  .00009390  00000+0  42424-3 0  9997
2 43194  97.6888 351.3114 0017854 203.4033 156.6391 15.21042970467242
SALSAT                  
1 46495U 20068K   26184.95457312  .00009251  00000+0  32069-3 0  9990
2 46495  97.8853 189.0427 0008159 236.6445 123.4014 15.30040776317924
IXPE                    
1 49954U 21121A   26185.33336806  .00014196  00000+0  78231-3 0  9996
2 49954   0.2282 187.5935 0006718 339.5101 221.0063 15.10409998  5891
SMILE                   
1 69123U 26109A   26158.38327019 -.00000041  00000+0 -36778-3 0  9994
2 69123  69.9787 209.3069 3310191 288.5544  45.7342  7.54049028  2480
